1    20U 59007A   17306.44919677 +.00000325 +00000-0 +11961-3 0  9998
2    20 033.3536 354.4743 1666098 225.5335 119.6528 11.55460306119754
1    20U 59007A   17307.48614036 +.00000337 +00000-0 +12410-3 0  9997
2    20 033.3544 350.7828 1666159 231.0311 112.9845 11.55461074119874
1    20U 59007A   17308.43670987 +.00000349 +00000-0 +12849-3 0  9999
2    20 033.3550 347.3990 1666208 236.0704 107.0321 11.55461786119985
1    20U 59007A   17310.42438567 +.00000419 +00000-0 +15713-3 0  9998
2    20 033.3560 340.3238 1666288 246.6067 095.0971 11.55463427120210
1    20U 59007A   17311.46149963 +.00000401 +00000-0 +14969-3 0  9995
2    20 033.3565 336.6321 1666324 252.1038 089.1470 11.55463952120331
1    20U 59007A   17313.44942367 +.00000516 +00000-0 +19743-3 0  9996
2    20 033.3569 329.5563 1666354 262.6398 078.2636 11.55466046120567
1    20U 59007A   17315.43750218 +.00000432 +00000-0 +16368-3 0  9996
2    20 033.3568 322.4798 1666350 273.1762 068.0337 11.55467161120795
1    20U 59007A   17316.30192940 +.00000402 +00000-0 +15186-3 0  9999
2    20 033.3566 319.4029 1666345 277.7573 063.7768 11.55467625120896
1    20U 59007A   17317.42572277 +.00000368 +00000-0 +13853-3 0  9998
2    20 033.3563 315.4028 1666327 283.7133 058.4037 11.55468270121020
1    20U 59007A   17317.94441048 +.00000337 +00000-0 +12589-3 0  9997
2    20 033.3561 313.5566 1666318 286.4623 055.9823 11.55468460121080
1    20U 59007A   17319.32761707 +.00000407 +00000-0 +15590-3 0  9991
2    20 033.3553 308.6329 1666285 293.7934 049.6934 11.55469835121240
1    20U 59007A   17320.36505716 +.00000437 +00000-0 +16895-3 0  9995
2    20 033.3546 304.9400 1666254 299.2923 045.1257 11.55470695121364
1    20U 59007A   17322.95877098 +.00000405 +00000-0 +15836-3 0  9996
2    20 033.3524 295.7067 1666171 313.0429 034.1891 11.55472349121663
1    20U 59007A   17324.94737469 +.00000417 +00000-0 +16550-3 0  9991
2    20 033.3506 288.6267 1666083 323.5878 026.1893 11.55473914121899
1    20U 59007A   17325.89846686 +.00000527 +00000-0 +21196-3 0  9992
2    20 033.3497 285.2401 1666041 328.6321 022.4564 11.55475406122000
1    20U 59007A   17326.93603506 +.00000508 +00000-0 +20522-3 0  9991
2    20 033.3488 281.5457 1665997 334.1350 018.4404 11.55476216122124
1    20U 59007A   17327.02249957 +.00000508 +00000-0 +20519-3 0  9994
2    20 033.3487 281.2378 1665992 334.5936 018.1081 11.55476299122131
1    20U 59007A   17328.23300980 +.00000483 +00000-0 +19644-3 0  9991
2    20 033.3476 276.9272 1665945 341.0144 013.4869 11.55477336122275
1    20U 59007A   17328.92473491 +.00000462 +00000-0 +18839-3 0  9997
2    20 033.3470 274.4639 1665916 344.6833 010.8690 11.55477883122350
1    20U 59007A   17329.96232687 +.00000454 +00000-0 +18626-3 0  9997
2    20 033.3461 270.7687 1665871 350.1871 006.9647 11.55478946122478
1    20U 59007A   17330.30819187 +.00000436 +00000-0 +17924-3 0  9993
2    20 033.3458 269.5370 1665862 352.0215 005.6680 11.55479190122512
1    20U 59007A   17330.91345632 +.00000418 +00000-0 +17231-3 0  9990
2    20 033.3454 267.3816 1665850 355.2320 003.4023 11.55479676122581
1    20U 59007A   17332.21045214 +.00000450 +00000-0 +18723-3 0  9991
2    20 033.3443 262.7625 1665835 002.1120 358.5546 11.55481133122737
1    20U 59007A   17335.15029206 +.00000416 +00000-0 +17573-3 0  9994
2    20 033.3423 252.2923 1665867 017.7070 347.5131 11.55483568123071
1    20U 59007A   17336.87958096 +.00000377 +00000-0 +16064-3 0  9992
2    20 033.3414 246.1330 1665910 026.8803 340.9101 11.55484740123278
1    20U 59007A   17337.05250824 +.00000357 +00000-0 +15281-3 0  9995
2    20 033.3413 245.5171 1665922 027.7978 340.2429 11.55484741123298
1    20U 59007A   17337.91713820 +.00000320 +00000-0 +13803-3 0  9998
2    20 033.3410 242.4374 1665949 032.3844 336.8845 11.55485210123395
1    20U 59007A   17338.00360069 +.00000316 +00000-0 +13616-3 0  9999
2    20 033.3409 242.1295 1665954 032.8430 336.5464 11.55485239123401
1    20U 59007A   17340.94324948 +.00000314 +00000-0 +13697-3 0  9998
2    20 033.3403 231.6598 1666060 048.4350 324.7590 11.55487547123747
1    20U 59007A   17341.11616481 +.00000314 +00000-0 +13688-3 0  9994
2    20 033.3403 231.0439 1666074 049.3521 324.0452 11.55487701123764
1    20U 59007A   17341.89427569 +.00000339 +00000-0 +14738-3 0  9990
2    20 033.3402 228.2726 1666084 053.4796 320.7988 11.55488474123856
1    20U 59007A   17342.15364291 +.00000332 +00000-0 +14484-3 0  9993
2    20 033.3401 227.3489 1666094 054.8551 319.7045 11.55488656123883
1    20U 59007A   17342.93173501 +.00000296 +00000-0 +13008-3 0  9991
2    20 033.3400 224.5779 1666121 058.9817 316.3816 11.55489024123973
1    20U 59007A   17343.10464225 +.00000294 +00000-0 +12932-3 0  9990
2    20 033.3399 223.9621 1666129 059.8985 315.6349 11.55489151123999
1    20U 59007A   17343.88271504 +.00000252 +00000-0 +11202-3 0  9994
2    20 033.3398 221.1912 1666152 064.0250 312.2338 11.55489493124081
1    20U 59007A   17344.05561785 +.00000247 +00000-0 +10970-3 0  9992
2    20 033.3398 220.5754 1666162 064.9419 311.4689 11.55489593124109
1    20U 59007A   17344.92011896 +.00000221 +00000-0 +99098-4 0  9992
2    20 033.3396 217.4967 1666188 069.5265 307.5913 11.55490051124204
1    20U 59007A   17345.09301652 +.00000215 +00000-0 +96699-4 0  9990
2    20 033.3396 216.8809 1666194 070.4434 306.8049 11.55490136124226
1    20U 59007A   17345.87104400 +.00000234 +00000-0 +10428-3 0  9994
2    20 033.3395 214.1101 1666209 074.5694 303.2189 11.55490724124310
1    20U 59007A   17346.04393638 +.00000231 +00000-0 +10292-3 0  9993
2    20 033.3394 213.4944 1666216 075.4862 302.4114 11.55490816124378
1    20U 59007A   17346.90838333 +.00000238 +00000-0 +10594-3 0  9996
2    20 033.3393 210.4158 1666230 080.0699 298.3127 11.55491378124435
1    20U 59007A   17347.59992244 +.00000259 +00000-0 +11406-3 0  9990
2    20 033.3392 207.9530 1666237 083.7372 294.9574 11.55491850124516
1    20U 59007A   17347.94568554 +.00000248 +00000-0 +10955-3 0  9998
2    20 033.3392 206.7216 1666245 085.5706 293.2538 11.55492008124556
1    20U 59007A   17348.98294846 +.00000232 +00000-0 +10274-3 0  9990
2    20 033.3391 203.0276 1666266 091.0711 288.0333 11.55492487124671
1    20U 59007A   17349.93373651 +.00000237 +00000-0 +10415-3 0  9990
2    20 033.3390 199.6416 1666282 096.1128 283.0991 11.55493029124782
1    20U 59007A   17350.62519615 +.00000248 +00000-0 +10843-3 0  9997
2    20 033.3389 197.1790 1666290 099.7797 279.4173 11.55493445124860
1    20U 59007A   17350.88448846 +.00000246 +00000-0 +10729-3 0  9993
2    20 033.3389 196.2556 1666294 101.1547 278.0159 11.55493584124891
1    20U 59007A   17351.57592096 +.00000285 +00000-0 +12288-3 0  9992
2    20 033.3388 193.7931 1666295 104.8215 274.2230 11.55494178124979
1    20U 59007A   17351.92162989 +.00000264 +00000-0 +11428-3 0  9997
2    20 033.3388 192.5621 1666301 106.6537 272.2969 11.55494261125013
1    20U 59007A   17352.61303222 +.00000294 +00000-0 +12593-3 0  9998
2    20 033.3387 190.0997 1666302 110.3203 268.3800 11.55494803125094
1    20U 59007A   17352.87230279 +.00000294 +00000-0 +12590-3 0  9994
2    20 033.3387 189.1763 1666303 111.6951 266.8896 11.55494973125129
1    20U 59007A   17353.90935657 +.00000265 +00000-0 +11298-3 0  9993
2    20 033.3386 185.4828 1666305 117.1951 260.8088 11.55495366125249
1    20U 59007A   17354.60070017 +.00000242 +00000-0 +10308-3 0  9997
2    20 033.3385 183.0205 1666302 120.8619 256.6490 11.55495576125322
1    20U 59007A   17355.89691437 +.00000234 +00000-0 +98275-4 0  9995
2    20 033.3385 178.4038 1666299 127.7371 248.6235 11.55496202125471
1    20U 59007A   17356.58819994 +.00000231 +00000-0 +96537-4 0  9998
2    20 033.3385 175.9415 1666295 131.4041 244.2247 11.55496518125558
1    20U 59007A   17356.84742696 +.00000233 +00000-0 +97177-4 0  9994
2    20 033.3385 175.0181 1666294 132.7792 242.5544 11.55496671125589
1    20U 59007A   17357.53868603 +.00000240 +00000-0 +99430-4 0  9990
2    20 033.3385 172.5558 1666290 136.4464 238.0462 11.55497021125660
1    20U 59007A   17357.88430859 +.00000261 +00000-0 +10754-3 0  9990
2    20 033.3386 171.3247 1666287 138.2796 235.7640 11.55497307125701
1    20U 59007A   17358.57554022 +.00000300 +00000-0 +12297-3 0  9994
2    20 033.3387 168.8624 1666283 141.9466 231.1433 11.55497847125780
1    20U 59007A   17358.83474760 +.00000304 +00000-0 +12440-3 0  9997
2    20 033.3388 167.9391 1666284 143.3215 229.3924 11.55498006125817
1    20U 59007A   17359.87155371 +.00000353 +00000-0 +14353-3 0  9995
2    20 033.3390 164.2457 1666297 148.8229 222.2924 11.55498864125939
1    20U 59007A   17360.82192995 +.00000355 +00000-0 +14308-3 0  9997
2    20 033.3395 160.8603 1666298 153.8646 215.6635 11.55499368126047
1    20U 59007A   17361.51309673 +.00000367 +00000-0 +14751-3 0  9992
2    20 033.3398 158.3982 1666305 157.5318 210.7771 11.55499830126128
1    20U 59007A   17361.85867578 +.00000353 +00000-0 +14108-3 0  9993
2    20 033.3400 157.1672 1666311 159.3650 208.3163 11.55499946126161
1    20U 59007A   17363.58653435 +.00000285 +00000-0 +11124-3 0  9999
2    20 033.3411 151.0123 1666352 168.5320 195.8637 11.55500634126363
1    20U 59007A   17363.84570908 +.00000283 +00000-0 +11023-3 0  9997
2    20 033.3413 150.0891 1666354 169.9066 193.9797 11.55500781126392
1    20U 59007A   17364.53683785 +.00000287 +00000-0 +11091-3 0  9991
2    20 033.3418 147.6273 1666382 173.5739 188.9391 11.55501213126476
1    20U 59007A   17364.79601001 +.00000300 +00000-0 +11601-3 0  9993
2    20 033.3420 146.7041 1666389 174.9488 187.0452 11.55501469126500
1    20U 59007A   17365.74630536 +.00000307 +00000-0 +11805-3 0  9997
2    20 033.3427 143.3192 1666428 179.9906 180.0893 11.55502092126618
1    20U 59007A   18001.61020943 +.00000325 +00000-0 +12453-3 0  9996
2    20 033.3435 140.2420 1666471 184.5744 173.7647 11.55502739126712
